{"fetched_at":"2026-03-30T06:02:59Z","count":15439,"tles":[{"name":"STARLINK-11707 [DTC]","line1":"1 64328U 25124M   26087.81785758  .00218066  00000+0  16579-2 0  9991","line2":"2 64328  43.0001 273.8345 0001761 288.7595  71.3081 15.70852372 45845","category":"Starlink"}]}